start=new Date('2022-03-15T00:00:00.000Z').valueOf();
sats=[{"SITE":"AFWTR","MEAN_MOTION_DDOT":"0.0000000000000","OBJECT_ID":"2021-125AV","RA_OF_ASC_NODE":"299.3237","TIME_SYSTEM":"UTC","PERIOD":"92.767","EPOCH":"2022-03-14T20:00:01.000224","REV_AT_EPOCH":"368","LAUNCH_DATE":"2021-12-18","CLASSIFICATION_TYPE":"U","INCLINATION":"53.2175","SEMIMAJOR_AXIS":"6788.240","TLE_LINE1":"1 50199U 21125AV  22073.83334491 -.00709933  00000-0 -12554-1 0  9995","DECAY_DATE":null,"ARG_OF_PERICENTER":"50.7154","MEAN_MOTION":"15.52269031","MEAN_MOTION_DOT":"-0.00709933","RCS_SIZE":"LARGE","GP_ID":"198771077","OBJECT_NAME":"STARLINK-3270","OBJECT_TYPE":"PAYLOAD","TLE_LINE2":"2 50199  53.2175 299.3237 0001511  50.7154 208.0052 15.52269031  3682","ELEMENT_SET_NO":"999","MEAN_ELEMENT_THEORY":"SGP4","PERIAPSIS":"409.079","EPHEMERIS_TYPE":"0","BSTAR":"-0.01255400000000","FILE":"3359665","CENTER_NAME":"EARTH","MEAN_ANOMALY":"208.0052","APOAPSIS":"411.131","NORAD_CAT_ID":"50199","COUNTRY_CODE":"US","ECCENTRICITY":"0.00015110","REF_FRAME":"TEME"},{"PERIOD":"92.676","SITE":"AFWTR","MEAN_MOTION_DDOT":"0.0000000000000","OBJECT_ID":"2021-125AW","RA_OF_ASC_NODE":"299.3437","TIME_SYSTEM":"UTC","REV_AT_EPOCH":"368","EPOCH":"2022-03-14T20:00:01.000224","SEMIMAJOR_AXIS":"6783.789","DECAY_DATE":null,"TLE_LINE1":"1 50200U 21125AW  22073.83334491 -.00712632  00000-0 -11924-1 0  9998","ARG_OF_PERICENTER":"66.8881","LAUNCH_DATE":"2021-12-18","CLASSIFICATION_TYPE":"U","INCLINATION":"53.2174","RCS_SIZE":"LARGE","MEAN_MOTION_DOT":"-0.00712632","MEAN_MOTION":"15.53797036","OBJECT_TYPE":"PAYLOAD","TLE_LINE2":"2 50200  53.2174 299.3437 0001230  66.8881 253.0671 15.53797036  3688","GP_ID":"198771328","OBJECT_NAME":"STARLINK-3235","ELEMENT_SET_NO":"999","PERIAPSIS":"404.819","MEAN_ELEMENT_THEORY":"SGP4","BSTAR":"-0.01192400000000","FILE":"3359665","CENTER_NAME":"EARTH","MEAN_ANOMALY":"253.0671","EPHEMERIS_TYPE":"0","COUNTRY_CODE":"US","ECCENTRICITY":"0.00012300","REF_FRAME":"TEME","APOAPSIS":"406.488","NORAD_CAT_ID":"50200"},{"REF_FRAME":"TEME","COUNTRY_CODE":"US","ECCENTRICITY":"0.00012980","APOAPSIS":"405.452","NORAD_CAT_ID":"50201","MEAN_ANOMALY":"287.0666","CENTER_NAME":"EARTH","BSTAR":"-0.01178300000000","FILE":"3359665","EPHEMERIS_TYPE":"0","MEAN_ELEMENT_THEORY":"SGP4","PERIAPSIS":"403.691","ELEMENT_SET_NO":"999","TLE_LINE2":"2 50201  53.2175 299.3379 0001298  53.4378 287.0666 15.54169069  3683","OBJECT_TYPE":"PAYLOAD","OBJECT_NAME":"STARLINK-3255","GP_ID":"198769577","RCS_SIZE":"MEDIUM","MEAN_MOTION_DOT":"-0.00713797","MEAN_MOTION":"15.54169069","DECAY_DATE":null,"TLE_LINE1":"1 50201U 21125AX  22073.83334491 -.00713797  00000-0 -11783-1 0  9995","ARG_OF_PERICENTER":"53.4378","SEMIMAJOR_AXIS":"6782.706","LAUNCH_DATE":"2021-12-18","CLASSIFICATION_TYPE":"U","INCLINATION":"53.2175","EPOCH":"2022-03-14T20:00:01.000224","REV_AT_EPOCH":"368","PERIOD":"92.654","RA_OF_ASC_NODE":"299.3379","TIME_SYSTEM":"UTC","MEAN_MOTION_DDOT":"0.0000000000000","SITE":"AFWTR","OBJECT_ID":"2021-125AX"},{"MEAN_MOTION_DOT":"-0.00720927","RCS_SIZE":"LARGE","MEAN_MOTION":"15.48286855","SEMIMAJOR_AXIS":"6799.874","ARG_OF_PERICENTER":"53.3736","TLE_LINE1":"1 50202U 21125AY  22073.83334491 -.00720927  00000-0 -14514-1 0  9994","DECAY_DATE":null,"INCLINATION":"53.2174","LAUNCH_DATE":"2021-12-18","CLASSIFICATION_TYPE":"U","REV_AT_EPOCH":"368","EPOCH":"2022-03-14T20:00:01.000224","PERIOD":"93.006","SITE":"AFWTR","MEAN_MOTION_DDOT":"0.0000000000000","OBJECT_ID":"2021-125AY","TIME_SYSTEM":"UTC","RA_OF_ASC_NODE":"298.4287","COUNTRY_CODE":"US","ECCENTRICITY":"0.00013220","REF_FRAME":"TEME","NORAD_CAT_ID":"50202","APOAPSIS":"422.638","FILE":"3359665","BSTAR":"-0.01451400000000","CENTER_NAME":"EARTH","MEAN_ANOMALY":"283.6190","EPHEMERIS_TYPE":"0","ELEMENT_SET_NO":"999","MEAN_ELEMENT_THEORY":"SGP4","PERIAPSIS":"420.840","OBJECT_TYPE":"PAYLOAD","TLE_LINE2":"2 50202  53.2174 298.4287 0001322  53.3736 283.6190 15.48286855  3686","GP_ID":"198769826","OBJECT_NAME":"STARLINK-3256"},{"SITE":"AFWTR","MEAN_MOTION_DDOT":"0.0000000000000","OBJECT_ID":"2021-125AZ","RA_OF_ASC_NODE":"299.3423","TIME_SYSTEM":"UTC","PERIOD":"92.669","REV_AT_EPOCH":"368","EPOCH":"2022-03-14T20:00:01.000224","LAUNCH_DATE":"2021-12-18","CLASSIFICATION_TYPE":"U","INCLINATION":"53.2174","SEMIMAJOR_AXIS":"6783.422","TLE_LINE1":"1 50203U 21125AZ  22073.83334491 -.00713132  00000-0 -11878-1 0  9995","DECAY_DATE":null,"ARG_OF_PERICENTER":"61.3297","MEAN_MOTION":"15.53923168","MEAN_MOTION_DOT":"-0.00713132","RCS_SIZE":"LARGE","GP_ID":"198770578","OBJECT_NAME":"STARLINK-3257","OBJECT_TYPE":"PAYLOAD","TLE_LINE2":"2 50203  53.2174 299.3423 0001245  61.3297 265.2924 15.53923168  3686","ELEMENT_SET_NO":"999","MEAN_ELEMENT_THEORY":"SGP4","PERIAPSIS":"404.442","EPHEMERIS_TYPE":"0","BSTAR":"-0.01187800000000","FILE":"3359665","MEAN_ANOMALY":"265.2924","CENTER_NAME":"EARTH","APOAPSIS":"406.131","NORAD_CAT_ID":"50203","ECCENTRICITY":"0.00012450","COUNTRY_CODE":"US","REF_FRAME":"TEME"},{"PERIAPSIS":"402.697","MEAN_ELEMENT_THEORY":"SGP4","ELEMENT_SET_NO":"999","OBJECT_NAME":"STARLINK-3254","GP_ID":"198770829","TLE_LINE2":"2 50204  53.2175 299.3272 0001248  55.5321 307.1921 15.54522381  3682","OBJECT_TYPE":"PAYLOAD","NORAD_CAT_ID":"50204","APOAPSIS":"404.390","REF_FRAME":"TEME","COUNTRY_CODE":"US","ECCENTRICITY":"0.00012480","EPHEMERIS_TYPE":"0","MEAN_ANOMALY":"307.1921","CENTER_NAME":"EARTH","FILE":"3359665","BSTAR":"-0.01164600000000","EPOCH":"2022-03-14T20:00:01.000224","REV_AT_EPOCH":"368","TIME_SYSTEM":"UTC","RA_OF_ASC_NODE":"299.3272","SITE":"AFWTR","MEAN_MOTION_DDOT":"0.0000000000000","OBJECT_ID":"2021-125BA","PERIOD":"92.633","MEAN_MOTION":"15.54522381","RCS_SIZE":"LARGE","MEAN_MOTION_DOT":"-0.00714648","INCLINATION":"53.2175","CLASSIFICATION_TYPE":"U","LAUNCH_DATE":"2021-12-18","ARG_OF_PERICENTER":"55.5321","DECAY_DATE":null,"TLE_LINE1":"1 50204U 21125BA  22073.83334491 -.00714648  00000-0 -11646-1 0  9992","SEMIMAJOR_AXIS":"6781.678"},{"MEAN_MOTION":"15.73224015","MEAN_MOTION_DOT":"-0.00078249","RCS_SIZE":"LARGE","INCLINATION":"53.2131","LAUNCH_DATE":"2021-12-18","CLASSIFICATION_TYPE":"U","ARG_OF_PERICENTER":"6.2890","DECAY_DATE":null,"TLE_LINE1":"1 50205U 21125BB  22073.83334491 -.00078249  00000-0 -55748-3 0  9996","SEMIMAJOR_AXIS":"6727.827","EPOCH":"2022-03-14T20:00:01.000224","REV_AT_EPOCH":"366","TIME_SYSTEM":"UTC","RA_OF_ASC_NODE":"294.7678","OBJECT_ID":"2021-125BB","SITE":"AFWTR","MEAN_MOTION_DDOT":"0.0000000000000","PERIOD":"91.532","NORAD_CAT_ID":"50205","APOAPSIS":"352.025","REF_FRAME":"TEME","COUNTRY_CODE":"US","ECCENTRICITY":"0.00034680","EPHEMERIS_TYPE":"0","CENTER_NAME":"EARTH","MEAN_ANOMALY":"7.8495","FILE":"3359665","BSTAR":"-0.00055748000000","MEAN_ELEMENT_THEORY":"SGP4","PERIAPSIS":"347.358","ELEMENT_SET_NO":"999","OBJECT_NAME":"STARLINK-3260","GP_ID":"198770077","TLE_LINE2":"2 50205  53.2131 294.7678 0003468   6.2890   7.8495 15.73224015  3666","OBJECT_TYPE":"PAYLOAD"},{"REF_FRAME":"TEME","COUNTRY_CODE":"US","ECCENTRICITY":"0.00011700","NORAD_CAT_ID":"50206","APOAPSIS":"404.650","MEAN_ANOMALY":"289.7532","CENTER_NAME":"EARTH","FILE":"3359665","BSTAR":"-0.01168500000000","EPHEMERIS_TYPE":"0","PERIAPSIS":"403.063","MEAN_ELEMENT_THEORY":"SGP4","ELEMENT_SET_NO":"999","TLE_LINE2":"2 50206  53.2175 299.3330 0001170  64.4917 289.7532 15.54414827  3681","OBJECT_TYPE":"PAYLOAD","OBJECT_NAME":"STARLINK-3258","GP_ID":"198770326","MEAN_MOTION_DOT":"-0.00714228","RCS_SIZE":"LARGE","MEAN_MOTION":"15.54414827","ARG_OF_PERICENTER":"64.4917","TLE_LINE1":"1 50206U 21125BC  22073.83334491 -.00714228  00000-0 -11685-1 0  9991","DECAY_DATE":null,"SEMIMAJOR_AXIS":"6781.991","INCLINATION":"53.2175","CLASSIFICATION_TYPE":"U","LAUNCH_DATE":"2021-12-18","REV_AT_EPOCH":"368","EPOCH":"2022-03-14T20:00:01.000224","PERIOD":"92.639","TIME_SYSTEM":"UTC","RA_OF_ASC_NODE":"299.3330","SITE":"AFWTR","MEAN_MOTION_DDOT":"0.0000000000000","OBJECT_ID":"2021-125BC"},{"RCS_SIZE":"LARGE","MEAN_MOTION_DOT":"-0.00714791","MEAN_MOTION":"15.54295689","TLE_LINE1":"1 50207U 21125BD  22073.83334491 -.00714791  00000-0 -11746-1 0  9995","DECAY_DATE":null,"ARG_OF_PERICENTER":"49.6403","SEMIMAJOR_AXIS":"6782.338","CLASSIFICATION_TYPE":"U","LAUNCH_DATE":"2021-12-18","INCLINATION":"53.2174","REV_AT_EPOCH":"366","EPOCH":"2022-03-14T20:00:01.000224","PERIOD":"92.646","RA_OF_ASC_NODE":"299.3360","TIME_SYSTEM":"UTC","SITE":"AFWTR","OBJECT_ID":"2021-125BD","MEAN_MOTION_DDOT":"0.0000000000000","REF_FRAME":"TEME","COUNTRY_CODE":"US","ECCENTRICITY":"0.00013180","APOAPSIS":"405.097","NORAD_CAT_ID":"50207","CENTER_NAME":"EARTH","MEAN_ANOMALY":"297.4210","BSTAR":"-0.01174600000000","FILE":"3359665","EPHEMERIS_TYPE":"0","MEAN_ELEMENT_THEORY":"SGP4","PERIAPSIS":"403.309","ELEMENT_SET_NO":"999","TLE_LINE2":"2 50207  53.2174 299.3360 0001318  49.6403 297.4210 15.54295689  3663","OBJECT_TYPE":"PAYLOAD","OBJECT_NAME":"STARLINK-3262","GP_ID":"198771078"},{"LAUNCH_DATE":"2022-01-06","CLASSIFICATION_TYPE":"U","INCLINATION":"53.2155","TLE_LINE1":"1 50803U 22001A   22073.83334491 -.00142556  00000-0 -26191-2 0  9996","DECAY_DATE":null,"ARG_OF_PERICENTER":"36.8434","SEMIMAJOR_AXIS":"6797.428","MEAN_MOTION":"15.49122873","MEAN_MOTION_DOT":"-0.00142556","RCS_SIZE":"LARGE","RA_OF_ASC_NODE":"229.5438","TIME_SYSTEM":"UTC","SITE":"AFETR","MEAN_MOTION_DDOT":"0.0000000000000","OBJECT_ID":"2022-001A","PERIOD":"92.956","REV_AT_EPOCH":"365","EPOCH":"2022-03-14T20:00:01.000224","EPHEMERIS_TYPE":"0","MEAN_ANOMALY":"327.1218","CENTER_NAME":"EARTH","BSTAR":"-0.00261910000000","FILE":"3359665","APOAPSIS":"420.556","NORAD_CAT_ID":"50803","REF_FRAME":"TEME","ECCENTRICITY":"0.00018580","COUNTRY_CODE":"US","OBJECT_NAME":"STARLINK-3321","GP_ID":"198770637","TLE_LINE2":"2 50803  53.2155 229.5438 0001858  36.8434 327.1218 15.49122873  3652","OBJECT_TYPE":"PAYLOAD","PERIAPSIS":"418.030","MEAN_ELEMENT_THEORY":"SGP4","ELEMENT_SET_NO":"999"}];
